{
  "fetched_at_utc": "2026-06-07T04:22:38.678754+00:00",
  "observation_time_utc": "2026-06-07T03:54:00+00:00",
  "station_id": "KBOS",
  "wind_direction": 260,
  "wind_speed_kt": 12.0,
  "wind_speed": 6.173328,
  "wind_gust_kt": null,
  "wind_gust_10m_ms": null,
  "temperature_c": 21.7,
  "dewpoint_c": 16.1,
  "altimeter_hpa": 1005.2,
  "raw_metar": "METAR KBOS 070354Z 26012KT 10SM -RA BKN090 OVC110 22/16 A2968 RMK AO2 PK WND 25039/0321 SLP049 P0004 T02170161 $",
  "source": "aviationweather_metar"
}
