{
  "fetched_at_utc": "2026-06-02T23:21:21.302103+00:00",
  "observation_time_utc": "2026-06-02T22:54:00+00:00",
  "station_id": "KBOS",
  "wind_direction": 140,
  "wind_speed_kt": 5.0,
  "wind_speed": 2.57222,
  "wind_gust_kt": null,
  "wind_gust_10m_ms": null,
  "temperature_c": 20.6,
  "dewpoint_c": 7.8,
  "altimeter_hpa": 1018.7,
  "raw_metar": "METAR KBOS 022254Z 14005KT 10SM FEW090 SCT180 BKN250 21/08 A3008 RMK AO2 SLP184 T02060078 $",
  "source": "aviationweather_metar"
}
